H1 CPF 01  gfz 2022 11 11 13  8152 terrasarx 
H2 0702601  6201 31698    2022 11 11 12 59 42 2022 11 16 00 00 42   120 1 1  0 0 0
H9
10 0 59895  10062.000000  0   -3570587.287  -3038095.052   5037356.455
10 0 59895  10182.000000  0   -3173794.777  -2427215.317   5601310.263
10 0 59895  10302.000000  0   -2710577.015  -1781469.527   6066743.088
10 0 59895  10422.000000  0   -2188540.622  -1113244.047   6425508.619
10 0 59895  10542.000000  0   -1616529.798   -435163.802   6671337.619
10 0 59895  10662.000000  0   -1004471.804    240147.969   6799939.521
10 0 59895  10782.000000  0    -363204.276    900302.900   6809071.509
10 0 59895  10902.000000  0     295716.321   1533374.098   6698575.799
10 0 59895  11022.000000  0     960222.537   2128111.523   6470382.420
10 0 59895  11142.000000  0    1617956.388   2674141.813   6128476.801
10 0 59895  11262.000000  0    2256498.144   3162149.563   5678834.721
10 0 59895  11382.000000  0    2863601.254   3584039.302   5129324.847
10 0 59895  11502.000000  0    3427430.156   3933074.395   4489576.632
10 0 59895  11622.000000  0    3936793.154   4203987.846   3770815.599
10 0 59895  11742.000000  0    4381368.519   4393067.294   2985672.450
10 0 59895  11862.000000  0    4751920.925   4498208.325   2147959.453
10 0 59895  11982.000000  0    5040495.319   4518934.936   1272424.943
10 0 59895  12102.000000  0    5240590.925   4456387.381    374488.609
10 0 59895  12222.000000  0    5347306.420   4313276.058   -530039.120
10 0 59895  12342.000000  0    5357451.785   4093802.977  -1425244.526
10 0 59895  12462.000000  0    5269626.537   3803553.491  -2295398.550
10 0 59895  12582.000000  0    5084261.876   3449360.412  -3125239.624
10 0 59895  12702.000000  0    4803625.796   3039145.797  -3900245.015
10 0 59895  12822.000000  0    4431791.758   2581744.386  -4606886.386
10 0 59895  12942.000000  0    3974571.710   2086711.194  -5232863.172
10 0 59895  13062.000000  0    3439416.819   1564120.359  -5767309.457
10 0 59895  13182.000000  0    2835288.278   1024360.126  -6200973.370
10 0 59895  13302.000000  0    2172500.735    477927.516  -6526366.119
10 0 59895  13422.000000  0    1462543.493    -64772.653  -6737879.132
10 0 59895  13542.000000  0     717882.688   -593621.692  -6831872.139
10 0 59895  13662.000000  0     -48256.085  -1098971.795  -6806728.923
10 0 59895  13782.000000  0    -822117.182  -1571816.925  -6662880.451
10 0 59895  13902.000000  0   -1589655.521  -2003948.985  -6402799.228
10 0 59895  14022.000000  0   -2336786.030  -2388098.238  -6030961.506
10 0 59895  14142.000000  0   -3049636.501  -2718054.349  -5553777.961
10 0 59895  14262.000000  0   -3714802.288  -2988768.029  -4979495.208
10 0 59895  14382.000000  0   -4319600.060  -3196431.527  -4318064.883
10 0 59895  14502.000000  0   -4852313.090  -3338534.539  -3580981.293
10 0 59895  14622.000000  0   -5302424.476  -3413895.096  -2781090.514
10 0 59895  14742.000000  0   -5660833.012  -3422664.304  -1932371.817
10 0 59895  14862.000000  0   -5920045.334  -3366303.797  -1049694.757
10 0 59895  14982.000000  0   -6074339.831  -3247536.384   -148556.702
10 0 59895  15102.000000  0   -6119897.568  -3070270.288    755194.435
10 0 59895  15222.000000  0   -6054896.671  -2839499.065   1645647.333
10 0 59895  15342.000000  0   -5879564.879  -2561178.403   2507117.719
10 0 59895  15462.000000  0   -5596190.182  -2242083.667   3324432.476
10 0 59895  15582.000000  0   -5209091.506  -1889652.972   4083204.643
10 0 59895  15702.000000  0   -4724545.818  -1511817.290   4770091.871
10 0 59895  15822.000000  0   -4150677.888  -1116824.546   5373030.654
10 0 59895  15942.000000  0   -3497316.734   -713062.207   5881446.196
10 0 59895  16062.000000  0   -2775819.602   -308880.295   6286435.237
10 0 59895  16182.000000  0   -1998866.573     87580.610   6580916.638
10 0 59895  16302.000000  0   -1180232.105    468551.121   6759747.879
10 0 59895  16422.000000  0    -334538.774    826783.285   6819809.185
10 0 59895  16542.000000  0     523003.988   1155687.324   6760054.162
10 0 59895  16662.000000  0    1376872.403   1449452.498   6581526.951
10 0 59895  16782.000000  0    2211508.510   1703150.125   6287344.837
10 0 59895  16902.000000  0    3011602.807   1912816.349   5882647.369
10 0 59895  17022.000000  0    3762376.897   2075514.483   5374512.589
10 0 59895  17142.000000  0    4449859.651   2189375.382   4771838.646
10 0 59895  17262.000000  0    5061151.760   2253616.288   4085194.887
10 0 59895  17382.000000  0    5584677.600   2268536.971   3326641.782
10 0 59895  17502.000000  0    6010413.317   2235491.100   2509517.858
10 0 59895  17622.000000  0    6330086.247   2156836.183   1648205.343
10 0 59895  17742.000000  0    6537344.569   2035861.486    757872.252
10 0 59895  17862.000000  0    6627888.258   1876695.188   -145802.030
10 0 59895  17982.000000  0    6599558.985   1684194.968  -1046912.176
10 0 59895  18102.000000  0    6452385.809   1463822.743  -1929614.957
10 0 59895  18222.000000  0    6188590.068   1221507.350  -2778414.579
10 0 59895  18342.000000  0    5812544.443    963499.207  -3578441.417
10 0 59895  18462.000000  0    5330689.036    696221.083  -4315714.886
10 0 59895  18582.000000  0    4751407.962    426118.542  -4977386.415
10 0 59895  18702.000000  0    4084871.068    159513.605  -5551957.112
10 0 59895  18822.000000  0    3342845.583    -97534.531  -6029468.800
10 0 59895  18942.000000  0    2538480.806   -339359.256  -6401667.059
10 0 59895  19062.000000  0    1686070.333   -560804.772  -6662131.871
10 0 59895  19182.000000  0     800799.038   -757330.512  -6806377.818
10 0 59895  19302.000000  0    -101524.962   -925099.953  -6831923.902
10 0 59895  19422.000000  0   -1004746.998  -1061052.115  -6738330.248
10 0 59895  19542.000000  0   -1892647.883  -1162955.901  -6527205.473
10 0 59895  19662.000000  0   -2749229.149  -1229445.936  -6202181.613
10 0 59895  19782.000000  0   -3558994.462  -1260039.623  -5768857.443
10 0 59895  19902.000000  0   -4307226.979  -1255135.765  -5234713.686
10 0 59895  20022.000000  0   -4980259.034  -1215993.908  -4608995.196
10 0 59895  20142.000000  0   -5565726.477  -1144694.898  -3902562.036
10 0 59895  20262.000000  0   -6052804.573  -1044083.185  -3127711.180
10 0 59895  20382.000000  0   -6432419.878   -917691.575  -2297969.164
10 0 59895  20502.000000  0   -6697431.608   -769649.759  -1427859.125
10 0 59895  20622.000000  0   -6842778.716   -604579.080   -532646.083
10 0 59895  20742.000000  0   -6865587.163   -427474.135    371936.459
10 0 59895  20862.000000  0   -6765232.750   -243575.423   1269969.695
10 0 59895  20982.000000  0   -6543360.470    -58237.207   2145638.176
10 0 59895  21102.000000  0   -6203857.314    123207.222   2983517.641
10 0 59895  21222.000000  0   -5752779.604    295579.331   3768855.134
10 0 59895  21342.000000  0   -5198236.516    453984.481   4487834.590
10 0 59895  21462.000000  0   -4550234.161    593932.724   5127822.348
10 0 59895  21582.000000  0   -3820484.662    711449.080   5677587.791
10 0 59895  21702.000000  0   -3022185.633    803170.541   6127497.443
10 0 59895  21822.000000  0   -2169773.482    866427.150   6469679.211
10 0 59895  21942.000000  0   -1278656.145    899306.951   6698154.789
10 0 59895  22062.000000  0    -364930.569    900702.935   6808937.060
10 0 59895  22182.000000  0     554908.204    870340.853   6800094.387
10 0 59895  22302.000000  0    1464263.599    808787.972   6671781.913
10 0 59895  22422.000000  0    2346735.646    717442.863   6426239.171
10 0 59895  22542.000000  0    3186415.982    598505.872   6067754.086
10 0 59895  22662.000000  0    3968176.520    454930.722   5602593.140
10 0 59895  22782.000000  0    4677945.321    290358.246   5038897.390
10 0 59895  22902.000000  0    5302965.346    109032.493   4386546.303
10 0 59895  23022.000000  0    5832032.405    -84298.343   3656990.179
10 0 59895  23142.000000  0    6255706.609   -284493.439   2863051.876
10 0 59895  23262.000000  0    6566491.393   -486141.990   2018700.435
10 0 59895  23382.000000  0    6758973.974   -683695.073   1138802.058
10 0 59895  23502.000000  0    6829927.115   -871601.852    238853.471
10 0 59895  23622.000000  0    6778368.103  -1044447.015   -665299.450
10 0 59895  23742.000000  0    6605570.237  -1197086.683  -1557750.418
10 0 59895  23862.000000  0    6315029.311  -1324778.329  -2422820.883
10 0 59895  23982.000000  0    5912385.218  -1423301.832  -3245342.128
10 0 59895  24102.000000  0    5405302.225  -1489068.635  -4010924.619
10 0 59895  24222.000000  0    4803311.364  -1519215.902  -4706209.599
10 0 59895  24342.000000  0    4117619.999  -1511684.108  -5319098.456
10 0 59895  24462.000000  0    3360892.654  -1465277.355  -5838956.499
10 0 59895  24582.000000  0    2547008.972  -1379704.355  -6256787.103
10 0 59895  24702.000000  0    1690805.659  -1255599.073  -6565376.343
10 0 59895  24822.000000  0     807805.213  -1094521.683  -6759406.990
10 0 59895  24942.000000  0     -86062.665   -898940.910  -6835540.451
10 0 59895  25062.000000  0    -974743.063   -672196.578  -6792467.564
10 0 59895  25182.000000  0   -1842337.361   -418443.821  -6630928.975
10 0 59895  25302.000000  0   -2673381.635   -142578.664  -6353703.064
10 0 59895  25422.000000  0   -3453115.707    149852.795  -5965562.531
10 0 59895  25542.000000  0   -4167741.921    452761.328  -5473202.191
10 0 59895  25662.000000  0   -4804670.490    759635.769  -4885133.979
10 0 59895  25782.000000  0   -5352745.637   1063676.354  -4211552.258
10 0 59895  25902.000000  0   -5802450.299   1357939.806  -3464167.959
10 0 59895  26022.000000  0   -6146082.037   1635491.515  -2656012.786
10 0 59895  26142.000000  0   -6377897.099   1889561.435  -1801216.887
10 0 59895  26262.000000  0   -6494218.966   2113700.895   -914763.121
10 0 59895  26382.000000  0   -6493507.264   2301936.057    -12220.928
10 0 59895  26502.000000  0   -6376383.636   2448913.434    890533.974
99
